STARLINK-3701           
1 52095U 22029H   26068.33473350  .00014895  00000+0  95089-3 0  9996
2 52095  53.2166  90.7152 0001333  75.8541 284.2599 15.08881034220607
PRSC-S1                 
1 65055U 25164A   26068.60758212  .00007316  00000+0  46631-3 0  9991
2 65055  41.1290 129.3637 0004466 348.3012  11.7698 15.08919510 33403
